FENGYUN 3C              
1 39260U 13052A   22304.51131413  .00000101  00000+0  72101-4 0  9997
2 39260  98.4458 325.6827 0010003 240.3291 119.6890 14.15954748471170
METEOR-M 2              
1 40069U 14037A   22304.74042056 -.00000003  00000+0  17949-4 0  9990
2 40069  98.4296 316.3123 0004624 292.0436  68.0244 14.20723841431217
HIMAWARI-8              
1 40267U 14060A   22304.22303368 -.00000277  00000+0  00000+0 0  9993
2 40267   0.0536 106.7894 0001219 132.4516  21.2540  1.00270264 29473
FENGYUN 2G              
1 40367U 14090A   22304.69961605 -.00000299  00000+0  00000+0 0  9996
2 40367   2.2750  88.0287 0002764 202.5638 100.3769  1.00259146 28752
METEOSAT-11 (MSG-4)     
1 40732U 15034A   22304.41438240 -.00000001  00000+0  00000+0 0  9996
2 40732   0.5891  75.2995 0000300 127.7469 346.2792  1.00281520 26748
ELEKTRO-L 2             
1 41105U 15074A   22302.94563407 -.00000110  00000+0  00000+0 0  9996
2 41105   3.3208  86.5181 0002870 128.9706 148.7999  1.00272118 25217
HIMAWARI-9              
1 41836U 16064A   22304.51738948 -.00000278  00000+0  00000+0 0  9991
2 41836   0.0385  96.1791 0000784 101.5434 169.1105  1.00272070 21904
GOES 16                 
1 41866U 16071A   22304.35991156 -.00000251  00000+0  00000+0 0  9997
2 41866   0.0455 278.3554 0000444 323.8910 211.8006  1.00271945 21834
FENGYUN 4A              
1 41882U 16077A   22304.84419443 -.00000334  00000+0  00000+0 0  9991
2 41882   0.1422 288.3932 0004655 116.5444  43.7663  1.00269739 21700
CYGFM05                 
1 41884U 16078A   22304.43856864  .00005375  00000+0  26529-3 0  9998
2 41884  34.9563  74.4723 0014965 232.0550 127.8810 15.17161821325444
CYGFM04                 
1 41885U 16078B   22304.70532602  .00005813  00000+0  28239-3 0  9997
2 41885  34.9497  61.2673 0013555 252.1381 107.7853 15.17713148325694
CYGFM02                 
1 41886U 16078C   22304.42958824  .00005344  00000+0  25945-3 0  9995
2 41886  34.9588  65.2414 0014219 243.6488 116.2764 15.17749196325579
CYGFM01                 
1 41887U 16078D   22304.45800440  .00005195  00000+0  25788-3 0  9998
2 41887  34.9529  76.9630 0015429 231.5536 128.3791 15.16962290325393
CYGFM08                 
1 41888U 16078E   22304.46572394  .00005707  00000+0  27930-3 0  9994
2 41888  34.9502  68.9167 0014644 243.9150 116.0054 15.17450466325538
CYGFM06                 
1 41889U 16078F   22304.47429606  .00005311  00000+0  25783-3 0  9998
2 41889  34.9585  63.6172 0013233 244.0630 115.8719 15.17766200325526
CYGFM07                 
1 41890U 16078G   22304.46474696  .00005345  00000+0  25999-3 0  9994
2 41890  34.9525  62.5383 0013014 248.5255 111.4070 15.17695941325506
CYGFM03                 
1 41891U 16078H   22304.59494428  .00005483  00000+0  26669-3 0  9992
2 41891  34.9559  62.2314 0012546 247.5142 112.4242 15.17700785325660
FENGYUN 3D              
1 43010U 17072A   22304.84205396 -.00000063  00000+0 -86545-5 0  9996
2 43010  98.8303 248.8430 0000745 198.6653 161.4514 14.19105299257113
NOAA 20                 
1 43013U 17073A   22304.46986000  .00000103  00000+0  69486-4 0  9993
2 43013  98.7275 240.9465 0001471  66.7060 293.4271 14.19554821256527
GOES 17                 
1 43226U 18022A   22304.18434404  .00000096  00000+0  00000+0 0  9992
2 43226   0.0353 280.5361 0000414 273.1426 134.8571  1.00272315 17142
FENGYUN 2H              
1 43491U 18050A   22304.69355073 -.00000130  00000+0  00000+0 0  9997
2 43491   1.4895  94.5144 0003716  67.9934 206.2580  1.00270394 16233
METOP-C                 
1 43689U 18087A   22304.78229062  .00000125  00000+0  77115-4 0  9993
2 43689  98.7179   2.6033 0003303  22.4693 337.6628 14.21481743206673
GEO-KOMPSAT-2A          
1 43823U 18100A   22304.70537128 -.00000347  00000+0  00000+0 0  9997
2 43823   0.0500  74.9161 0000971  67.2581 280.0239  1.00270772 14387
METEOR-M2 2             
1 44387U 19038A   22304.63241184  .00000014  00000+0  25675-4 0  9990
2 44387  98.7412 264.4281 0000476 184.4104 175.7063 14.23727115172782
FENGYUN 3E              
1 49008U 21062A   22304.45954041  .00000019  00000+0  29704-4 0  9990
2 49008  98.7173 304.3085 0001389 354.1186   5.9978 14.19743766 68617
GOES 18                 
1 51850U 22021A   22304.49278525  .00000094  00000+0  00000+0 0  9990
2 51850   0.0025  37.5485 0002165 185.6164 217.1080  1.00270421  2496
SES-20                  
1 53960U 22123A   22304.63448035  .00000109  00000+0  00000+0 0  9995
2 53960   0.0546 261.0824 0002997 117.7073 108.3296  1.00270930   265
SES-21                  
1 53961U 22123B   22304.63281039  .00000114  00000+0  00000+0 0  9991
2 53961   0.0500 315.2648 0000551 165.4716   4.1240  1.00272666   271
ATLAS 5 CENTAUR R/B     
1 53962U 22123C   22304.14814356 -.00000170  00000+0  00000+0 0  9995
2 53962   1.8828 164.6716 0290109 200.7572 158.6377  1.07594454   296
CREW DRAGON 5           
1 53963U 22124A   22304.51317130  .00016748  00000+0  30494-3 0  9997
2 53963  51.6438  21.2332 0006312  23.9726 155.8350 15.49597428366320
STARLINK-4633           
1 53964U 22125A   22304.83335648 -.01200617  00000+0 -26311-1 0  9992
2 53964  53.2177 324.7785 0001531  43.8864 217.8057 15.46320443  4447
STARLINK-4578           
1 53965U 22125B   22304.83335648 -.01200674  00000+0 -26026-1 0  9999
2 53965  53.2177 324.7715 0001349  55.4267 209.6066 15.46636718  4448
STARLINK-4635           
1 53966U 22125C   22304.83335648 -.01201370  00000+0 -25760-1 0  9998
2 53966  53.2177 324.7647 0001707  35.2910 233.2722 15.46947129  4445
STARLINK-4634           
1 53967U 22125D   22304.83335648 -.01201546  00000+0 -25486-1 0  9999
2 53967  53.2177 324.7578 0001625  37.9411 233.9412 15.47258713  4441
STARLINK-4629           
1 53968U 22125E   22304.83335648 -.01201916  00000+0 -24674-1 0  9999
2 53968  53.2176 324.7397 0001257  59.6957 221.2627 15.48194577  4443
STARLINK-4468           
1 53969U 22125F   22304.83335648 -.01201787  00000+0 -25217-1 0  9990
2 53969  53.2177 324.7512 0001609  38.0965 237.0728 15.47568413  4445
STARLINK-4567           
1 53970U 22125G   22304.83335648 -.01143817  00000+0 -10633-1 0  9997
2 53970  53.2175 323.5943 0003078 271.1049 216.7536 15.69632219  4468
STARLINK-4639           
1 53971U 22125H   22304.83335648 -.01201781  00000+0 -24940-1 0  9999
2 53971  53.2177 324.7454 0001755  32.3485 245.7422 15.47882101  4449
STARLINK-5157           
1 53972U 22125J   22304.83335648 -.01144255  00000+0 -10597-1 0  9995
2 53972  53.2175 323.5910 0003471 270.8370 218.6647 15.69718349  4467
STARLINK-5156           
1 53973U 22125K   22304.58334491 -.01216896  00000+0 -24175-1 0  9991
2 53973  53.2174 325.9289 0001287  46.1238 282.9930 15.49157774  1308
STARLINK-5159           
1 53974U 22125L   22304.83335648 -.00070131  00000+0 -49874-3 0  9999
2 53974  53.2182 323.2794 0002204  29.4473 262.9278 15.73229434  4468
STARLINK-5137           
1 53975U 22125M   22304.83335648 -.01122571  00000+0 -10405-1 0  9993
2 53975  53.2175 323.5925 0001758  17.3744 111.3092 15.69662715  4469
STARLINK-5134           
1 53976U 22125N   22304.83335648 -.00036174  00000+0 -25442-3 0  9995
2 53976  53.2196 323.5378 0002082  23.9009 141.0362 15.73197914  4462
STARLINK-5094           
1 53977U 22125P   22304.83335648 -.01138221  00000+0 -10525-1 0  9997
2 53977  53.2175 323.5880 0001513 305.6361 185.2997 15.69762225  4469
STARLINK-5148           
1 53978U 22125Q   22304.83335648 -.01118414  00000+0 -10283-1 0  9991
2 53978  53.2175 323.5834 0001180  65.0027  68.2315 15.69850718  4464
STARLINK-5123           
1 53979U 22125R   22304.83335648 -.01144376  00000+0 -10557-1 0  9992
2 53979  53.2175 323.5863 0003662 270.7193 221.0334 15.69808800  4468
STARLINK-5133           
1 53980U 22125S   22304.83335648 -.01110565  00000+0 -10166-1 0  9993
2 53980  53.2176 323.5839 0005450 270.1081 223.9345 15.69881739  4466
STARLINK-5149           
1 53981U 22125T   22304.83335648  .00088114  00000+0  62554-3 0  9995
2 53981  53.2209 323.5235 0002567  16.7908 155.8838 15.73202803  4466
STARLINK-5120           
1 53982U 22125U   22304.83335648 -.00025803  00000+0 -17974-3 0  9990
2 53982  53.2183 323.5679 0003288   7.6124 140.6575 15.73222075  4463
STARLINK-5103           
1 53983U 22125V   22304.83335648  .00038101  00000+0  27466-3 0  9991
2 53983  53.2174 323.5390 0003264  10.3777 151.5121 15.73195718  4464
STARLINK-5142           
1 53984U 22125W   22304.83335648 -.00026281  00000+0 -18325-3 0  9994
2 53984  53.2184 323.5770 0002905  12.8293 131.2061 15.73213702  4461
STARLINK-5147           
1 53985U 22125X   22304.83335648 -.00027699  00000+0 -19351-3 0  9999
2 53985  53.2182 323.5783 0003146   8.7362 134.2276 15.73200005  4466
STARLINK-5119           
1 53986U 22125Y   22304.83335648 -.00015637  00000+0 -10724-3 0  9994
2 53986  53.2187 323.2843 0002075  28.0758 262.3727 15.73188467  4461
STARLINK-5112           
1 53987U 22125Z   22304.83335648 -.00041038  00000+0 -28946-3 0  9994
2 53987  53.2184 323.5767 0003154   7.5626 136.0151 15.73187336  4464
STARLINK-5113           
1 53988U 22125AA  22304.83335648 -.00025164  00000+0 -17507-3 0  9998
2 53988  53.2187 323.5739 0003342   8.0190 137.8075 15.73234196  4469
STARLINK-5115           
1 53989U 22125AB  22304.83335648 -.00075203  00000+0 -53458-3 0  9993
2 53989  53.2184 323.5756 0004079   7.5495 137.0979 15.73256403  4466
STARLINK-5075           
1 53990U 22125AC  22304.83335648 -.00059173  00000+0 -42049-3 0  9997
2 53990  53.2189 323.5703 0003268  10.2100 137.5653 15.73172925  4468
STARLINK-5118           
1 53991U 22125AD  22304.83335648 -.00016966  00000+0 -11657-3 0  9992
2 53991  53.2197 322.8729 0002083  22.1166 109.9804 15.73223538  4475
STARLINK-5108           
1 53992U 22125AE  22304.83335648 -.00063061  00000+0 -44762-3 0  9994
2 53992  53.2185 323.5671 0003171   9.4335 139.5092 15.73225126  4464
